CCSDS_OMM_VERS = 2.0
CREATION_DATE  = 
ORIGINATOR     = 

OBJECT_NAME    = ERS-1
OBJECT_ID      = 1991-050A
CENTER_NAME    = EARTH
REF_FRAME      = TEME
TIME_SYSTEM    = UTC
MEAN_ELEMENT_THEORY = SGP/SGP4

EPOCH          = 2026-03-21T07:20:07.437696
MEAN_MOTION    = 14.39457491
ECCENTRICITY   = .00322896
INCLINATION    = 98.7874
RA_OF_ASC_NODE = 98.8319
ARG_OF_PERICENTER = 165.9797
MEAN_ANOMALY   = 194.2294

EPHEMERIS_TYPE = 0
CLASSIFICATION_TYPE = U
NORAD_CAT_ID   = 21574
ELEMENT_SET_NO = 999
REV_AT_EPOCH   = 81740
BSTAR          = .91764915E-4
MEAN_MOTION_DOT = .241E-5
MEAN_MOTION_DDOT = 0

CCSDS_OMM_VERS = 2.0
CREATION_DATE  = 
ORIGINATOR     = 

OBJECT_NAME    = ARIANE 40 R/B
OBJECT_ID      = 1991-050F
CENTER_NAME    = EARTH
REF_FRAME      = TEME
TIME_SYSTEM    = UTC
MEAN_ELEMENT_THEORY = SGP/SGP4

EPOCH          = 2026-03-21T02:54:07.633152
MEAN_MOTION    = 14.42901179
ECCENTRICITY   = .00039638
INCLINATION    = 98.1988
RA_OF_ASC_NODE = 131.9271
ARG_OF_PERICENTER = 56.0749
MEAN_ANOMALY   = 304.0818

EPHEMERIS_TYPE = 0
CLASSIFICATION_TYPE = U
NORAD_CAT_ID   = 21610
ELEMENT_SET_NO = 999
REV_AT_EPOCH   = 82064
BSTAR          = .79445681E-4
MEAN_MOTION_DOT = .224E-5
MEAN_MOTION_DDOT = 0

CCSDS_OMM_VERS = 2.0
CREATION_DATE  = 
ORIGINATOR     = 

OBJECT_NAME    = INTERCOSMOS 25
OBJECT_ID      = 1991-086A
CENTER_NAME    = EARTH
REF_FRAME      = TEME
TIME_SYSTEM    = UTC
MEAN_ELEMENT_THEORY = SGP/SGP4

EPOCH          = 2026-03-21T03:10:15.136032
MEAN_MOTION    = 12.12038205
ECCENTRICITY   = .14867942
INCLINATION    = 82.6032
RA_OF_ASC_NODE = 303.0919
ARG_OF_PERICENTER = 92.2798
MEAN_ANOMALY   = 284.8651

EPHEMERIS_TYPE = 0
CLASSIFICATION_TYPE = U
NORAD_CAT_ID   = 21819
ELEMENT_SET_NO = 999
REV_AT_EPOCH   = 49807
BSTAR          = .28238088E-3
MEAN_MOTION_DOT = .1478E-4
MEAN_MOTION_DDOT = 0

CCSDS_OMM_VERS = 2.0
CREATION_DATE  = 
ORIGINATOR     = 

OBJECT_NAME    = SL-8 R/B
OBJECT_ID      = 1992-008B
CENTER_NAME    = EARTH
REF_FRAME      = TEME
TIME_SYSTEM    = UTC
MEAN_ELEMENT_THEORY = SGP/SGP4

EPOCH          = 2026-03-21T05:36:25.906752
MEAN_MOTION    = 13.75969567
ECCENTRICITY   = .00359008
INCLINATION    = 82.9223
RA_OF_ASC_NODE = 259.1883
ARG_OF_PERICENTER = 102.1130
MEAN_ANOMALY   = 70.5836

EPHEMERIS_TYPE = 0
CLASSIFICATION_TYPE = U
NORAD_CAT_ID   = 21876
ELEMENT_SET_NO = 999
REV_AT_EPOCH   = 71100
BSTAR          = -.18139716E-4
MEAN_MOTION_DOT = -.2E-7
MEAN_MOTION_DDOT = 0

CCSDS_OMM_VERS = 2.0
CREATION_DATE  = 
ORIGINATOR     = 

OBJECT_NAME    = SL-8 R/B
OBJECT_ID      = 1992-020B
CENTER_NAME    = EARTH
REF_FRAME      = TEME
TIME_SYSTEM    = UTC
MEAN_ELEMENT_THEORY = SGP/SGP4

EPOCH          = 2026-03-21T04:23:58.829856
MEAN_MOTION    = 13.75550248
ECCENTRICITY   = .00275561
INCLINATION    = 82.9319
RA_OF_ASC_NODE = 145.2286
ARG_OF_PERICENTER = 265.1682
MEAN_ANOMALY   = 147.5527

EPHEMERIS_TYPE = 0
CLASSIFICATION_TYPE = U
NORAD_CAT_ID   = 21938
ELEMENT_SET_NO = 999
REV_AT_EPOCH   = 70271
BSTAR          = .34405174E-4
MEAN_MOTION_DOT = .48E-6
MEAN_MOTION_DDOT = 0

CCSDS_OMM_VERS = 2.0
CREATION_DATE  = 
ORIGINATOR     = 

OBJECT_NAME    = USA 81
OBJECT_ID      = 1992-023A
CENTER_NAME    = EARTH
REF_FRAME      = TEME
TIME_SYSTEM    = UTC
MEAN_ELEMENT_THEORY = SGP/SGP4

EPOCH          = 2026-03-21T04:26:51.160704
MEAN_MOTION    = 14.32371493
ECCENTRICITY   = .00021161
INCLINATION    = 85.0063
RA_OF_ASC_NODE = 124.8082
ARG_OF_PERICENTER = 69.9819
MEAN_ANOMALY   = 290.1602

EPHEMERIS_TYPE = 0
CLASSIFICATION_TYPE = U
NORAD_CAT_ID   = 21949
ELEMENT_SET_NO = 999
REV_AT_EPOCH   = 9643
BSTAR          = .49060993E-4
MEAN_MOTION_DOT = .152E-5
MEAN_MOTION_DDOT = 0

CCSDS_OMM_VERS = 2.0
CREATION_DATE  = 
ORIGINATOR     = 

OBJECT_NAME    = COSMOS 2219
OBJECT_ID      = 1992-076A
CENTER_NAME    = EARTH
REF_FRAME      = TEME
TIME_SYSTEM    = UTC
MEAN_ELEMENT_THEORY = SGP/SGP4

EPOCH          = 2026-03-21T04:37:35.262336
MEAN_MOTION    = 14.14093017
ECCENTRICITY   = .00183081
INCLINATION    = 71.0638
RA_OF_ASC_NODE = 354.0238
ARG_OF_PERICENTER = 190.7516
MEAN_ANOMALY   = 169.3218

EPHEMERIS_TYPE = 0
CLASSIFICATION_TYPE = U
NORAD_CAT_ID   = 22219
ELEMENT_SET_NO = 999
REV_AT_EPOCH   = 72000
BSTAR          = -.50367213E-4
MEAN_MOTION_DOT = -.143E-5
MEAN_MOTION_DDOT = 0

CCSDS_OMM_VERS = 2.0
CREATION_DATE  = 
ORIGINATOR     = 

OBJECT_NAME    = SL-16 R/B
OBJECT_ID      = 1992-076B
CENTER_NAME    = EARTH
REF_FRAME      = TEME
TIME_SYSTEM    = UTC
MEAN_ELEMENT_THEORY = SGP/SGP4

EPOCH          = 2026-03-21T00:20:29.250816
MEAN_MOTION    = 14.16861534
ECCENTRICITY   = .00106296
INCLINATION    = 71.0006
RA_OF_ASC_NODE = 164.5209
ARG_OF_PERICENTER = 75.3681
MEAN_ANOMALY   = 96.3989

EPHEMERIS_TYPE = 0
CLASSIFICATION_TYPE = U
NORAD_CAT_ID   = 22220
ELEMENT_SET_NO = 999
REV_AT_EPOCH   = 72343
BSTAR          = .16380538E-3
MEAN_MOTION_DOT = .281E-5
MEAN_MOTION_DDOT = 0

CCSDS_OMM_VERS = 2.0
CREATION_DATE  = 
ORIGINATOR     = 

OBJECT_NAME    = COSMOS 2221
OBJECT_ID      = 1992-080A
CENTER_NAME    = EARTH
REF_FRAME      = TEME
TIME_SYSTEM    = UTC
MEAN_ELEMENT_THEORY = SGP/SGP4

EPOCH          = 2026-03-21T06:34:27.275520
MEAN_MOTION    = 14.96244918
ECCENTRICITY   = .00150251
INCLINATION    = 82.5000
RA_OF_ASC_NODE = 267.9813
ARG_OF_PERICENTER = 148.9666
MEAN_ANOMALY   = 211.2447

EPHEMERIS_TYPE = 0
CLASSIFICATION_TYPE = U
NORAD_CAT_ID   = 22236
ELEMENT_SET_NO = 999
REV_AT_EPOCH   = 78252
BSTAR          = .16218871E-3
MEAN_MOTION_DOT = .186E-4
MEAN_MOTION_DDOT = 0

CCSDS_OMM_VERS = 2.0
CREATION_DATE  = 
ORIGINATOR     = 

OBJECT_NAME    = SL-16 R/B
OBJECT_ID      = 1992-093B
CENTER_NAME    = EARTH
REF_FRAME      = TEME
TIME_SYSTEM    = UTC
MEAN_ELEMENT_THEORY = SGP/SGP4

EPOCH          = 2026-03-21T02:49:03.427392
MEAN_MOTION    = 14.15449293
ECCENTRICITY   = .00063095
INCLINATION    = 71.0238
RA_OF_ASC_NODE = 340.2783
ARG_OF_PERICENTER = 282.2023
MEAN_ANOMALY   = 77.8393

EPHEMERIS_TYPE = 0
CLASSIFICATION_TYPE = U
NORAD_CAT_ID   = 22285
ELEMENT_SET_NO = 999
REV_AT_EPOCH   = 71477
BSTAR          = .17559529E-3
MEAN_MOTION_DOT = .295E-5
MEAN_MOTION_DDOT = 0

CCSDS_OMM_VERS = 2.0
CREATION_DATE  = 
ORIGINATOR     = 

OBJECT_NAME    = COSMOS 2228
OBJECT_ID      = 1992-094A
CENTER_NAME    = EARTH
REF_FRAME      = TEME
TIME_SYSTEM    = UTC
MEAN_ELEMENT_THEORY = SGP/SGP4

EPOCH          = 2026-03-21T05:10:39.329472
MEAN_MOTION    = 14.97246371
ECCENTRICITY   = .00165936
INCLINATION    = 82.5172
RA_OF_ASC_NODE = 226.2737
ARG_OF_PERICENTER = 262.6423
MEAN_ANOMALY   = 97.2914

EPHEMERIS_TYPE = 0
CLASSIFICATION_TYPE = U
NORAD_CAT_ID   = 22286
ELEMENT_SET_NO = 999
REV_AT_EPOCH   = 77778
BSTAR          = .1966183E-3
MEAN_MOTION_DOT = .2308E-4
MEAN_MOTION_DDOT = 0

CCSDS_OMM_VERS = 2.0
CREATION_DATE  = 
ORIGINATOR     = 

OBJECT_NAME    = SL-16 R/B
OBJECT_ID      = 1993-016B
CENTER_NAME    = EARTH
REF_FRAME      = TEME
TIME_SYSTEM    = UTC
MEAN_ELEMENT_THEORY = SGP/SGP4

EPOCH          = 2026-03-21T07:12:24.785568
MEAN_MOTION    = 14.15306940
ECCENTRICITY   = .00123424
INCLINATION    = 71.0081
RA_OF_ASC_NODE = 190.7969
ARG_OF_PERICENTER = 298.9937
MEAN_ANOMALY   = 60.9948

EPHEMERIS_TYPE = 0
CLASSIFICATION_TYPE = U
NORAD_CAT_ID   = 22566
ELEMENT_SET_NO = 999
REV_AT_EPOCH   = 70381
BSTAR          = -.10499389E-3
MEAN_MOTION_DOT = -.252E-5
MEAN_MOTION_DDOT = 0

