ERS-1                   
1 21574U 91050A   26080.30564164  .00000241  00000+0  91765-4 0  9997
2 21574  98.7874  98.8319 0032289 165.9797 194.2294 14.39457491817408
ARIANE 40 R/B           
1 21610U 91050F   26080.12092168  .00000224  00000+0  79446-4 0  9991
2 21610  98.1988 131.9271 0003963  56.0749 304.0818 14.42901179820643
INTERCOSMOS 25          
1 21819U 91086A   26080.13211963  .00001478  00000+0  28238-3 0  9992
2 21819  82.6032 303.0919 1486794  92.2798 284.8651 12.12038205498071
SL-8 R/B                
1 21876U 92008B   26080.23363318 -.00000002  00000+0 -18140-4 0  9999
2 21876  82.9223 259.1883 0035900 102.1130  70.5836 13.75969567711009
SL-8 R/B                
1 21938U 92020B   26080.18331979  .00000048  00000+0  34405-4 0  9994
2 21938  82.9319 145.2286 0027556 265.1682 147.5527 13.75550248702718
USA 81                  
1 21949U 92023A   26080.18531436  .00000152  00000+0  49061-4 0  9999
2 21949  85.0063 124.8082 0002116  69.9819 290.1602 14.32371493 96435
COSMOS 2219             
1 22219U 92076A   26080.19276924 -.00000143  00000+0 -50367-4 0  9990
2 22219  71.0638 354.0238 0018308 190.7516 169.3218 14.14093017720006
SL-16 R/B               
1 22220U 92076B   26080.01422744  .00000281  00000+0  16381-3 0  9994
2 22220  71.0006 164.5209 0010629  75.3681  96.3989 14.16861534723431
COSMOS 2221             
1 22236U 92080A   26080.27392680  .00001860  00000+0  16219-3 0  9993
2 22236  82.5000 267.9813 0015025 148.9666 211.2447 14.96244918782524
SL-16 R/B               
1 22285U 92093B   26080.11740078  .00000295  00000+0  17560-3 0  9993
2 22285  71.0238 340.2783 0006309 282.2023  77.8393 14.15449293714771
COSMOS 2228             
1 22286U 92094A   26080.21573298  .00002308  00000+0  19662-3 0  9996
2 22286  82.5172 226.2737 0016593 262.6423  97.2914 14.97246371777787
SL-16 R/B               
1 22566U 93016B   26080.30028687 -.00000252  00000+0 -10499-3 0  9996
2 22566  71.0081 190.7969 0012342 298.9937  60.9948 14.15306940703818
